HORUS 1                 
1 55690U 23025A   26138.85771414  .00003620  00000+0  15574-3 0  9999
2 55690  97.3467 214.0678 0000968 133.7667 226.3651 15.23257036179586
HORUS 2                 
1 55844U 23032A   26138.82786892  .00003853  00000+0  16466-3 0  9990
2 55844  97.3538 214.8151 0003024 134.7289 225.4195 15.23438912177010
GLOBAL-19               
1 55982U 23041B   26138.36370624  .00008255  00000+0  21992-3 0  9995
2 55982  42.0031  15.8856 0005162 143.8114 216.3076 15.38378725177335
BRO-9                   
1 56185U 23054H   26138.53261277  .00154493  00000+0  70887-3 0  9990
2 56185  97.2976  54.8061 0007987 120.5153 239.6905 15.83205814174372
ION SCV-010             
1 56192U 23054Q   26138.25973539  .00002929  00000+0  11691-3 0  9992
2 56192  97.3817  28.1432 0011538 316.9924  43.0412 15.25910519171632
TELEOS-2                
1 56310U 23057C   26138.56285525  .00003541  00000+0  24477-3 0  9999
2 56310   9.9889  59.8684 0000734 263.5129  96.5001 14.96422691168350
SNIPE 4                 
1 56744U 23072B   26138.81218309  .00013510  00000+0  32821-3 0  9990
2 56744  97.5272 343.9104 0007007  78.3899 281.8134 15.41103373165582
SNIPE 2                 
1 56745U 23072C   26138.87257021  .00016593  00000+0  35022-3 0  9991
2 56745  97.5268 346.8205 0006408 102.5777 257.6188 15.45264009165714
2023-072G               
1 56749U 23072G   26138.81236132  .00018953  00000+0  35378-3 0  9995
2 56749  97.4924 345.5325 0005620  94.4025 265.7868 15.48813098165913
GEISAT PRECURSOR        
1 56934U 23084C   26138.80797212  .00005002  00000+0  15352-3 0  9995
2 56934  97.6189 278.8111 0007236  92.8986 267.3084 15.34208126163021
BLACKJACK ACES-3        
1 56950U 23084U   26138.71209744  .00003268  00000+0  16293-3 0  9998
2 56950  97.6175 273.6907 0004039 104.7832 255.3849 15.18264799162699
BLACKJACK ACES-2        
1 56955U 23084Z   26138.85042759  .00003703  00000+0  18381-3 0  9993
2 56955  97.6173 273.9151 0002656  92.3047 267.8490 15.18335900162726
BLACKJACK ACES-1        
1 56956U 23084AA  26138.83828810  .00004465  00000+0  22183-3 0  9993
2 56956  97.6164 273.6803 0001522  95.6878 264.4530 15.18187402112441
ION SCV-011             
1 56957U 23084AB  26138.47971316  .00003428  00000+0  12659-3 0  9999
2 56957  98.1378 323.0145 0008238 134.5389 225.6523 15.28526327161275
GHOST-3                 
1 56958U 23084AC  26138.86880542  .00011427  00000+0  22923-3 0  9996
2 56958  97.6187 285.8983 0006786  50.1775 310.0071 15.46848325163488
TOMORROW-R2             
1 56962U 23084AG  26138.41403523  .00130299  83951-5  44335-3 0  9994
2 56962  97.5931 298.7726 0002147 271.8747  88.2279 15.89871711164303
AFR-1                   
1 56964U 23084AJ  26138.83674887  .00003111  00000+0  11561-3 0  9990
2 56964  97.6236 274.8349 0012025  84.2780 275.9830 15.28276495162744
METEOR-M2 3             
1 57166U 23091A   26138.86932975  .00000003  00000+0  20172-4 0  9997
2 57166  98.6099 194.4443 0002821 248.8678 111.2200 14.24044034150349
UMKA 1 (RS40S)          
1 57172U 23091G   26138.81101888  .00003612  00000+0  16849-3 0  9994
2 57172  97.5065 197.6264 0011977 215.6796 144.3640 15.20446923159544
2023-091H               
1 57173U 23091H   26138.85020928  .00007579  00000+0  28039-3 0  9994
2 57173  97.5061 201.8177 0009408 207.9699 152.1035 15.27940902159823
2023-091J               
1 57174U 23091J   26138.83989569  .00002227  00000+0  12719-3 0  9991
2 57174  97.5072 192.3561 0011804 245.8214 114.1784 15.13707178159194
CUBEBEL 2 (EU11S)       
1 57175U 23091K   26138.86035690  .00007875  00000+0  28721-3 0  9996
2 57175  97.5063 201.8299 0009447 209.6715 150.3990 15.28397913159822
SITRO-AIS 5 (KATYS)     
1 57176U 23091L   26138.81791816  .00007363  00000+0  26603-3 0  9990
2 57176  97.5073 202.4522 0011287 198.1257 161.9582 15.28714196159852
ZORKIY-2M 1             
1 57177U 23091M   26138.86437307  .00004276  00000+0  19860-3 0  9995
2 57177  97.5106 197.9291 0012640 212.4788 147.5671 15.20482579159548
CUBESX-HSE 3 (RS42S)    
1 57178U 23091N   26138.82395890  .00008357  00000+0  28639-3 0  9990
2 57178  97.5104 204.0563 0010984 187.9860 172.1207 15.30400246159939
MONITOR-3 (RS58S)       
1 57180U 23091Q   26138.85076038  .00006959  00000+0  26341-3 0  9990
2 57180  97.5095 202.0935 0011634 195.2282 164.8609 15.27192165159810
MONITOR-4 (RS57S)       
1 57182U 23091S   26138.83163221  .00006884  00000+0  25987-3 0  9993
2 57182  97.5090 202.0435 0011580 195.8075 164.2804 15.27289528159819
MONITOR-2 (RS39S)       
1 57184U 23091U   26138.86199139  .00003168  00000+0  15625-3 0  9995
2 57184  97.5089 197.3380 0010562 206.9791 153.0895 15.18608975159505
SVYATOBOR 1 (RS60S)     
1 57187U 23091X   26138.82029766  .00005559  00000+0  21843-3 0  9997
2 57187  97.5102 202.4848 0009525 186.1184 173.9939 15.26063002159834
HORS 1                  
1 57188U 23091Y   26138.87334424  .00006232  00000+0  24382-3 0  9993
2 57188  97.5081 202.3044 0009002 185.0541 175.0608 15.26161856159846
