OBJECT_NAME,OBJECT_ID,EPOCH,MEAN_MOTION,ECCENTRICITY,INCLINATION,RA_OF_ASC_NODE,ARG_OF_PERICENTER,MEAN_ANOMALY,EPHEMERIS_TYPE,CLASSIFICATION_TYPE,NORAD_CAT_ID,ELEMENT_SET_NO,REV_AT_EPOCH,BSTAR,MEAN_MOTION_DOT,MEAN_MOTION_DDOT
HORUS 1,2023-025A,2026-05-18T20:35:06.501696,15.23257036,.0000968,97.3467,214.0678,133.7667,226.3651,0,U,55690,999,17958,.15574E-3,.362E-4,0
HORUS 2,2023-032A,2026-05-18T19:52:07.874688,15.23438912,.0003024,97.3538,214.8151,134.7289,225.4195,0,U,55844,999,17701,.16466E-3,.3853E-4,0
GLOBAL-19,2023-041B,2026-05-18T08:43:44.219136,15.38378725,.0005162,42.0031,15.8856,143.8114,216.3076,0,U,55982,999,17733,.21992E-3,.8255E-4,0
BRO-9,2023-054H,2026-05-18T12:46:57.743328,15.83205814,.0007987,97.2976,54.8061,120.5153,239.6905,0,U,56185,999,17437,.70887E-3,.154493E-2,0
ION SCV-010,2023-054Q,2026-05-18T06:14:01.137696,15.25910519,.0011538,97.3817,28.1432,316.9924,43.0412,0,U,56192,999,17163,.11691E-3,.2929E-4,0
TELEOS-2,2023-057C,2026-05-18T13:30:30.693600,14.96422691,.0000734,9.9889,59.8684,263.5129,96.5001,0,U,56310,999,16835,.24477E-3,.3541E-4,0
SNIPE 4,2023-072B,2026-05-18T19:29:32.618976,15.41103373,.0007007,97.5272,343.9104,78.3899,281.8134,0,U,56744,999,16558,.32821E-3,.1351E-3,0
SNIPE 2,2023-072C,2026-05-18T20:56:30.066144,15.45264009,.0006408,97.5268,346.8205,102.5777,257.6188,0,U,56745,999,16571,.35022E-3,.16593E-3,0
2023-072G,2023-072G,2026-05-18T19:29:48.018048,15.48813098,.000562,97.4924,345.5325,94.4025,265.7868,0,U,56749,999,16591,.35378E-3,.18953E-3,0
GEISAT PRECURSOR,2023-084C,2026-05-18T19:23:28.791168,15.34208126,.0007236,97.6189,278.8111,92.8986,267.3084,0,U,56934,999,16302,.15352E-3,.5002E-4,0
BLACKJACK ACES-3,2023-084U,2026-05-18T17:05:25.218816,15.18264799,.0004039,97.6175,273.6907,104.7832,255.3849,0,U,56950,999,16269,.16293E-3,.3268E-4,0
BLACKJACK ACES-2,2023-084Z,2026-05-18T20:24:36.943776,15.18335900,.0002656,97.6173,273.9151,92.3047,267.8490,0,U,56955,999,16272,.18381E-3,.3703E-4,0
BLACKJACK ACES-1,2023-084AA,2026-05-18T20:07:08.091840,15.18187402,.0001522,97.6164,273.6803,95.6878,264.4530,0,U,56956,999,11244,.22183E-3,.4465E-4,0
ION SCV-011,2023-084AB,2026-05-18T11:30:47.217024,15.28526327,.0008238,98.1378,323.0145,134.5389,225.6523,0,U,56957,999,16127,.12659E-3,.3428E-4,0
GHOST-3,2023-084AC,2026-05-18T20:51:04.788288,15.46848325,.0006786,97.6187,285.8983,50.1775,310.0071,0,U,56958,999,16348,.22923E-3,.11427E-3,0
TOMORROW-R2,2023-084AG,2026-05-18T09:56:12.643872,15.89871711,.0002147,97.5931,298.7726,271.8747,88.2279,0,U,56962,999,16430,.44335E-3,.130299E-2,.83951E-5
AFR-1,2023-084AJ,2026-05-18T20:04:55.102368,15.28276495,.0012025,97.6236,274.8349,84.2780,275.9830,0,U,56964,999,16274,.11561E-3,.3111E-4,0
METEOR-M2 3,2023-091A,2026-05-18T20:51:50.090400,14.24044034,.0002821,98.6099,194.4443,248.8678,111.2200,0,U,57166,999,15034,.20172E-4,.3E-7,0
UMKA 1 (RS40S),2023-091G,2026-05-18T19:27:52.031232,15.20446923,.0011977,97.5065,197.6264,215.6796,144.3640,0,U,57172,999,15954,.16849E-3,.3612E-4,0
2023-091H,2023-091H,2026-05-18T20:24:18.081792,15.27940902,.0009408,97.5061,201.8177,207.9699,152.1035,0,U,57173,999,15982,.28039E-3,.7579E-4,0
2023-091J,2023-091J,2026-05-18T20:09:26.987616,15.13707178,.0011804,97.5072,192.3561,245.8214,114.1784,0,U,57174,999,15919,.12719E-3,.2227E-4,0
CUBEBEL 2 (EU11S),2023-091K,2026-05-18T20:38:54.836160,15.28397913,.0009447,97.5063,201.8299,209.6715,150.3990,0,U,57175,999,15982,.28721E-3,.7875E-4,0
SITRO-AIS 5 (KATYS),2023-091L,2026-05-18T19:37:48.129024,15.28714196,.0011287,97.5073,202.4522,198.1257,161.9582,0,U,57176,999,15985,.26603E-3,.7363E-4,0
ZORKIY-2M 1,2023-091M,2026-05-18T20:44:41.833248,15.20482579,.001264,97.5106,197.9291,212.4788,147.5671,0,U,57177,999,15954,.1986E-3,.4276E-4,0
CUBESX-HSE 3 (RS42S),2023-091N,2026-05-18T19:46:30.048960,15.30400246,.0010984,97.5104,204.0563,187.9860,172.1207,0,U,57178,999,15993,.28639E-3,.8357E-4,0
MONITOR-3 (RS58S),2023-091Q,2026-05-18T20:25:05.696832,15.27192165,.0011634,97.5095,202.0935,195.2282,164.8609,0,U,57180,999,15981,.26341E-3,.6959E-4,0
MONITOR-4 (RS57S),2023-091S,2026-05-18T19:57:33.022944,15.27289528,.001158,97.5090,202.0435,195.8075,164.2804,0,U,57182,999,15981,.25987E-3,.6884E-4,0
MONITOR-2 (RS39S),2023-091U,2026-05-18T20:41:16.056096,15.18608975,.0010562,97.5089,197.3380,206.9791,153.0895,0,U,57184,999,15950,.15625E-3,.3168E-4,0
SVYATOBOR 1 (RS60S),2023-091X,2026-05-18T19:41:13.717824,15.26063002,.0009525,97.5102,202.4848,186.1184,173.9939,0,U,57187,999,15983,.21843E-3,.5559E-4,0
HORS 1,2023-091Y,2026-05-18T20:57:36.942336,15.26161856,.0009002,97.5081,202.3044,185.0541,175.0608,0,U,57188,999,15984,.24382E-3,.6232E-4,0
